NORAD_CAT_ID,OBJECT_NAME,OBJECT_TYPE,EPOCH,MEAN_MOTION,ECCENTRICITY,INCLINATION,RA_OF_ASC_NODE,ARG_OF_PERICENTER,MEAN_ANOMALY,BSTAR,MEAN_MOTION_DOT,MEAN_MOTION_DDOT,TLE_LINE0,TLE_LINE1,TLE_LINE2,SEMIMAJOR_AXIS,PERIOD,APOGEE,PERIGEE,DECAYED
55660.0,STARLINK-5467,PAYLOAD,2024-05-16 02:13:12,14.99153949,0.0002551,70.0014,35.1161,284.1883,75.8993,-0.0002382,-2.996e-05,0.0,0 STARLINK-5467,1 55660U 23021AJ  24137.09251071 -.00002996  00000-0 -23820-3 0  9998,2 55660  70.0014  35.1161 0002551 284.1883  75.8993 14.99153949 69730,6947.646,96.054,571.283,567.739,0.0
55660.0,STARLINK-5467,PAYLOAD,2024-05-16 10:13:37,14.99154454,0.000236,70.0016,34.2759,276.1825,83.9066,-0.00019186,-2.431e-05,0.0,0 STARLINK-5467,1 55660U 23021AJ  24137.42612473 -.00002431  00000-0 -19186-3 0  9996,2 55660  70.0016  34.2759 0002360 276.1825  83.9066 14.99154454 70083,6947.645,96.054,571.149,567.87,0.0
55660.0,STARLINK-5467,PAYLOAD,2024-05-17 02:14:24,14.99170987,0.0002884,70.0006,32.5906,269.5086,90.5743,-0.00025901,-3.251e-05,0.0,0 STARLINK-5467,1 55660U 23021AJ  24138.09334337 -.00003251  00000-0 -25901-3 0  9993,2 55660  70.0006  32.5906 0002884 269.5086  90.5743 14.99170987 69884,6947.593,96.053,571.462,567.455,0.0
55660.0,STARLINK-5467,PAYLOAD,2024-05-17 21:27:27,14.99111739,0.0001865,70.0048,30.5682,307.8773,52.2218,-0.00013587,-1.747e-05,0.0,0 STARLINK-5467,1 55660U 23021AJ  24138.89407353 -.00001747  00000-0 -13587-3 0  9995,2 55660  70.0048  30.5682 0001865 307.8773  52.2218 14.99111739 70004,6947.776,96.057,570.937,568.346,0.0
55660.0,STARLINK-5467,PAYLOAD,2024-05-17 23:03:32,14.99113911,0.0002724,70.0002,30.4004,272.0767,88.008,-0.00024542,-3.081e-05,0.0,0 STARLINK-5467,1 55660U 23021AJ  24138.96079604 -.00003081  00000-0 -24542-3 0  9993,2 55660  70.0002  30.4004 0002724 272.0767  88.0080 14.99113911 70314,6947.77,96.057,571.527,567.742,0.0
55660.0,STARLINK-5467,PAYLOAD,2024-05-18 02:15:41,14.99126461,0.0002498,70.0013,30.0641,266.8644,93.223,-5.6834e-05,-7.86e-06,0.0,0 STARLINK-5467,1 55660U 23021AJ  24139.09423407 -.00000786  00000-0 -56834-4 0  9991,2 55660  70.0013  30.0641 0002498 266.8644  93.2230 14.99126461 70030,6947.731,96.056,571.332,567.86,0.0
55660.0,STARLINK-5467,PAYLOAD,2024-05-18 10:16:05,14.99144211,0.0002812,69.9992,29.2193,270.2682,89.8155,5.0012e-05,5.16e-06,0.0,0 STARLINK-5467,1 55660U 23021AJ  24139.42783780  .00000516  00000-0  50012-4 0  9992,2 55660  69.9992  29.2193 0002812 270.2682  89.8155 14.99144211 70081,6947.676,96.055,571.495,567.587,0.0
55660.0,STARLINK-5467,PAYLOAD,2024-05-18 21:28:37,14.99165138,0.000286,70.0006,28.0419,272.5072,87.576,0.00024866,2.939e-05,0.0,0 STARLINK-5467,1 55660U 23021AJ  24139.89488309  .00002939  00000-0  24866-3 0  9990,2 55660  70.0006  28.0419 0002860 272.5072  87.5760 14.99165138 70155,6947.611,96.053,571.464,567.489,0.0
55660.0,STARLINK-5467,PAYLOAD,2024-05-18 23:04:42,14.9917824,0.0002705,70.0,27.8717,265.39,94.6951,0.00019686,2.308e-05,0.0,0 STARLINK-5467,1 55660U 23021AJ  24139.96159794  .00002308  00000-0  19686-3 0  9995,2 55660  70.0000  27.8717 0002705 265.3900  94.6951 14.99178240 70468,6947.571,96.053,571.315,567.557,0.0
55660.0,STARLINK-5467,PAYLOAD,2024-05-19 02:16:51,14.99178872,0.0002653,70.0006,27.5346,265.0203,95.0654,0.00021844,2.572e-05,0.0,0 STARLINK-5467,1 55660U 23021AJ  24140.09504200  .00002572  00000-0  21844-3 0  9999,2 55660  70.0006  27.5346 0002653 265.0203  95.0654 14.99178872 70189,6947.569,96.053,571.277,567.591,0.0
55660.0,STARLINK-5467,PAYLOAD,2024-05-19 19:53:50,14.99102516,0.0003231,69.9989,25.6843,270.0537,90.0253,0.00021574,2.533e-05,0.0,0 STARLINK-5467,1 55660U 23021AJ  24140.82905622  .00002533  00000-0  21574-3 0  9990,2 55660  69.9989  25.6843 0003231 270.0537  90.0253 14.99102516 70290,6947.805,96.057,571.915,567.425,0.0
55660.0,STARLINK-5467,PAYLOAD,2024-05-20 02:18:10,14.99110965,0.0002643,70.0008,25.0114,264.1494,95.9364,6.035e-05,6.41e-06,0.0,0 STARLINK-5467,1 55660U 23021AJ  24141.09595674  .00000641  00000-0  60350-4 0  9996,2 55660  70.0008  25.0114 0002643 264.1494  95.9364 14.99110965 70634,6947.779,96.057,571.48,567.808,0.0
55660.0,STARLINK-5467,PAYLOAD,2024-05-20 19:55:03,14.99148382,0.0003196,69.9997,23.1546,269.4012,90.6781,-0.00019018,-2.411e-05,0.0,0 STARLINK-5467,1 55660U 23021AJ  24141.82990411 -.00002411  00000-0 -19018-3 0  9998,2 55660  69.9997  23.1546 0003196 269.4012  90.6781 14.99148382 70442,6947.663,96.055,571.749,567.308,0.0
55660.0,STARLINK-5467,PAYLOAD,2024-05-21 02:19:22,14.99162437,0.0002791,70.0002,22.4835,259.2697,100.8149,-0.0001822,-2.314e-05,0.0,0 STARLINK-5467,1 55660U 23021AJ  24142.09678822 -.00002314  00000-0 -18220-3 0  9993,2 55660  70.0002  22.4835 0002791 259.2697 100.8149 14.99162437 70484,6947.62,96.054,571.424,567.546,0.0
55660.0,STARLINK-5467,PAYLOAD,2024-05-21 19:56:17,14.99132562,0.0002551,70.0017,20.6327,239.7909,120.2998,0.00022787,2.683e-05,0.0,0 STARLINK-5467,1 55660U 23021AJ  24142.83075633  .00002683  00000-0  22787-3 0  9996,2 55660  70.0017  20.6327 0002551 239.7909 120.2998 14.99132562 70595,6947.712,96.056,571.35,567.805,0.0
55660.0,STARLINK-5467,PAYLOAD,2024-05-21 21:32:20,14.9923315,0.0002841,70.0013,20.4633,238.6171,121.4711,-0.0014164,-0.00017352,0.0,0 STARLINK-5467,1 55660U 23021AJ  24142.89746474 -.00017352  00000-0 -14164-2 0  9990,2 55660  70.0013  20.4633 0002841 238.6171 121.4711 14.99233150 70906,6947.401,96.049,571.24,567.293,0.0
55660.0,STARLINK-5467,PAYLOAD,2024-05-22 02:20:35,14.99213183,0.000261,70.0015,19.9575,238.7928,121.2976,-0.0010958,-0.00013445,0.0,0 STARLINK-5467,1 55660U 23021AJ  24143.09763259 -.00013445  00000-0 -10958-2 0  9999,2 55660  70.0015  19.9575 0002610 238.7928 121.2976 14.99213183 70636,6947.463,96.05,571.141,567.515,0.0
55660.0,STARLINK-5467,PAYLOAD,2024-05-22 19:57:32,14.99126228,0.0002657,70.0016,18.1048,242.4211,117.6678,0.00019578,2.292e-05,0.0,0 STARLINK-5467,1 55660U 23021AJ  24143.83162069  .00002292  00000-0  19578-3 0  9997,2 55660  70.0016  18.1048 0002657 242.4211 117.6678 14.99126228 70744,6947.732,96.056,571.443,567.751,0.0
55660.0,STARLINK-5467,PAYLOAD,2024-05-22 21:33:37,14.9911581,0.0002372,70.0026,17.9351,241.4527,118.6393,0.00034038,4.054e-05,0.0,0 STARLINK-5467,1 55660U 23021AJ  24143.89834895  .00004054  00000-0  34038-3 0  9992,2 55660  70.0026  17.9351 0002372 241.4527 118.6393 14.99115810 71057,6947.764,96.057,571.277,567.981,0.0
55660.0,STARLINK-5467,PAYLOAD,2024-05-23 02:21:51,14.99139055,0.000267,70.001,17.4308,250.557,109.5301,-5.9998e-05,-8.25e-06,0.0,0 STARLINK-5467,1 55660U 23021AJ  24144.09851760 -.00000825  00000-0 -59998-4 0  9992,2 55660  70.0010  17.4308 0002670 250.5570 109.5301 14.99139055 71085,6947.692,96.055,571.412,567.702,0.0
55660.0,STARLINK-5467,PAYLOAD,2024-05-23 21:34:51,14.99138828,0.00027,70.0006,15.4079,258.2404,101.8453,1.4615e-05,8.4e-07,0.0,0 STARLINK-5467,1 55660U 23021AJ  24144.89920257  .00000084  00000-0  14615-4 0  9990,2 55660  70.0006  15.4079 0002700 258.2404 101.8453 14.99138828 70908,6947.693,96.055,571.434,567.682,0.0
55660.0,STARLINK-5467,PAYLOAD,2024-05-24 00:47:00,14.99140241,0.0002501,70.0011,15.0716,244.6994,115.3906,2.5056e-05,2.12e-06,0.0,0 STARLINK-5467,1 55660U 23021AJ  24145.03264894  .00000212  00000-0  25056-4 0  9999,2 55660  70.0011  15.0716 0002501 244.6994 115.3906 14.99140241 71221,6947.688,96.055,571.291,567.816,0.0
55660.0,STARLINK-5467,PAYLOAD,2024-05-24 21:36:04,14.99137702,0.0002892,70.0004,12.8841,267.0094,93.0734,0.00031138,3.702e-05,0.0,0 STARLINK-5467,1 55660U 23021AJ  24145.90005386  .00003702  00000-0  31138-3 0  9998,2 55660  70.0004  12.8841 0002892 267.0094  93.0734 14.99137702 71050,6947.696,96.055,571.571,567.552,0.0
55660.0,STARLINK-5467,PAYLOAD,2024-05-25 08:48:39,14.99144221,0.0003,70.0,11.7017,265.71,94.3716,6.7819e-05,7.33e-06,0.0,0 STARLINK-5467,1 55660U 23021AJ  24146.36712286  .00000733  00000-0  67819-4 0  9990,2 55660  70.0000  11.7017 0003000 265.7100  94.3716 14.99144221 71423,6947.676,96.055,571.625,567.457,0.0
55660.0,STARLINK-5467,PAYLOAD,2024-05-25 21:37:20,14.99135293,0.0002949,70.0,10.3562,265.9345,94.1477,-8.5092e-05,-1.13e-05,0.0,0 STARLINK-5467,1 55660U 23021AJ  24146.90092692 -.00001130  00000-0 -85092-4 0  9999,2 55660  70.0000  10.3562 0002949 265.9345  94.1477 14.99135293 71204,6947.704,96.055,571.618,567.52,0.0
55660.0,STARLINK-5467,PAYLOAD,2024-05-26 15:14:14,14.9913821,0.0003156,69.9984,8.5005,275.0652,85.0147,4.9389e-05,5.08e-06,0.0,0 STARLINK-5467,1 55660U 23021AJ  24147.63488532  .00000508  00000-0  49389-4 0  9997,2 55660  69.9984   8.5005 0003156 275.0652  85.0147 14.99138210 71617,6947.695,96.055,571.752,567.367,0.0
55660.0,STARLINK-5467,PAYLOAD,2024-05-26 21:38:33,14.99141586,0.0003412,69.9988,7.8274,274.1918,85.8851,8.2585e-05,9.13e-06,0.0,0 STARLINK-5467,1 55660U 23021AJ  24147.90177792  .00000913  00000-0  82585-4 0  9995,2 55660  69.9988   7.8274 0003412 274.1918  85.8851 14.99141586 71352,6947.684,96.055,571.92,567.179,0.0
55660.0,STARLINK-5467,PAYLOAD,2024-05-27 00:50:43,14.99143873,0.0003081,69.9998,7.4914,271.2452,88.8355,0.00010458,1.181e-05,0.0,0 STARLINK-5467,1 55660U 23021AJ  24148.03522356  .00001181  00000-0  10458-3 0  9997,2 55660  69.9998   7.4914 0003081 271.2452  88.8355 14.99143873 71671,6947.677,96.055,571.683,567.402,0.0
55660.0,STARLINK-5467,PAYLOAD,2024-05-27 20:03:43,14.99134735,0.0002834,70.0001,5.4705,268.2872,91.7963,4.3169e-05,4.32e-06,0.0,0 STARLINK-5467,1 55660U 23021AJ  24148.83591802  .00000432  00000-0  43169-4 0  9991,2 55660  70.0001   5.4705 0002834 268.2872  91.7963 14.99134735 71497,6947.705,96.055,571.539,567.601,0.0
55660.0,STARLINK-5467,PAYLOAD,2024-05-27 21:39:48,14.99134669,0.0002837,70.0001,5.3021,268.4184,91.665,4.073e-05,4.03e-06,0.0,0 STARLINK-5467,1 55660U 23021AJ  24148.90264226  .00000403  00000-0  40730-4 0  9995,2 55660  70.0001   5.3021 0002837 268.4184  91.6650 14.99134669 71801,6947.706,96.055,571.542,567.6,0.0
